[{"OBJECT_NAME":"STARLINK-35945","OBJECT_ID":"2025-286A","EPOCH":"2026-03-09T22:32:19.946400","MEAN_MOTION":15.30210803,"ECCENTRICITY":0.00012597,"INCLINATION":53.1617,"RA_OF_ASC_NODE":357.3758,"ARG_OF_PERICENTER":91.5738,"MEAN_ANOMALY":268.5407,"EPHEMERIS_TYPE":0,"CLASSIFICATION_TYPE":"U","NORAD_CAT_ID":66925,"ELEMENT_SET_NO":999,"REV_AT_EPOCH":1545,"BSTAR":0.00097092818,"MEAN_MOTION_DOT":0.00028517,"MEAN_MOTION_DDOT":0},{"OBJECT_NAME":"OBJECT A","OBJECT_ID":"2025-234A","EPOCH":"2026-03-09T23:03:34.210368","MEAN_MOTION":15.32505956,"ECCENTRICITY":0.00130678,"INCLINATION":97.4388,"RA_OF_ASC_NODE":139.352,"ARG_OF_PERICENTER":148.634,"MEAN_ANOMALY":211.5684,"EPHEMERIS_TYPE":0,"CLASSIFICATION_TYPE":"U","NORAD_CAT_ID":66053,"ELEMENT_SET_NO":999,"REV_AT_EPOCH":2164,"BSTAR":0.0014840662,"MEAN_MOTION_DOT":0.00046856,"MEAN_MOTION_DDOT":0}]
